OBJECT_NAME,OBJECT_ID,EPOCH,MEAN_MOTION,ECCENTRICITY,INCLINATION,RA_OF_ASC_NODE,ARG_OF_PERICENTER,MEAN_ANOMALY,EPHEMERIS_TYPE,CLASSIFICATION_TYPE,NORAD_CAT_ID,ELEMENT_SET_NO,REV_AT_EPOCH,BSTAR,MEAN_MOTION_DOT,MEAN_MOTION_DDOT
PERSEUS-M1,2014-033AF,2026-06-23T19:02:20.121216,14.95650723,.00098612,97.9645,119.0334,276.3983,83.6114,0,U,40039,999,65162,.16003567E-3,.1719E-4,0
POLYITAN-1,2014-033AJ,2026-06-25T00:19:40.936800,15.33506522,.0008869,98.0944,203.0157,119.8414,240.3708,0,U,40042,999,65479,.6706E-3,.21694E-3,0
TIGRISAT,2014-033AK,2026-06-24T22:20:52.661184,14.85187769,.0050234,97.7840,325.7656,50.4069,310.1565,0,U,40043,999,64677,.20392E-3,.1731E-4,0
AEROCUBE 6A,2014-033AM,2026-06-24T04:05:03.868224,14.98159364,.00383487,97.7240,342.0460,353.9157,6.1594,0,U,40045,999,64766,.29900126E-3,.3537E-4,0
AEROCUBE 6B,2014-033AN,2026-06-24T23:11:37.880160,14.99630893,.0037827,97.7235,342.6415,342.1616,17.8276,0,U,40046,999,64792,.39086E-3,.4825E-4,0
CANX-4,2014-034C,2026-06-25T02:56:51.890784,14.81277779,.0012553,98.3114,51.7268,351.9882,8.1127,0,U,40055,999,64570,.12146E-3,.891E-5,0
CANX-5,2014-034D,2026-06-24T22:02:39.814368,14.81294261,.001257,98.3116,51.5591,352.8632,7.2398,0,U,40056,999,63648,.11329E-3,.827E-5,0
UKUBE-1,2014-037F,2026-06-24T23:15:25.100928,15.13660442,.0002964,98.4237,180.0587,120.9120,239.2400,0,U,40074,999,64973,.52263E-3,.9327E-4,0
BRITE-PL2 (HEWELIUSZ),2014-049B,2026-06-24T04:50:49.659360,14.94617811,.00154332,97.9104,287.2561,87.1932,273.1054,0,U,40119,999,64249,.17421257E-3,.1831E-4,0
AEROCUBE 5C,2015-058B,2026-06-24T21:09:50.321088,14.91481537,.0131121,64.7655,238.6522,60.2761,301.1324,0,U,40965,999,36680,.16498E-3,.1771E-4,0
AEROCUBE 7,2015-058C,2026-06-25T04:34:16.310784,14.95766278,.0120867,64.7609,219.7470,58.5251,302.7609,0,U,40966,999,36715,.26103E-3,.3198E-4,0
FOX-1A (AO-85),2015-058D,2026-06-23T22:13:10.891200,14.90994015,.01308506,64.7750,258.0417,53.9672,307.3482,0,U,40967,999,11457,.15604053E-3,.164E-4,0
SINOD-D 1,2015-058E,2026-06-24T21:36:04.258656,14.95944936,.0119574,64.7741,234.7583,50.0269,311.1272,0,U,40968,999,11781,.24025E-3,.2934E-4,0
SNAP-3 ALICE,2015-058G,2026-06-25T02:50:10.682016,15.61960050,.0025595,64.7507,76.4812,7.4918,352.6606,0,U,40970,999,11812,.18484E-2,.167907E-2,0
LMRST-SAT,2015-058H,2026-06-23T14:44:51.315648,14.90610757,.01324307,64.7747,255.3597,56.1235,305.2393,0,U,40971,999,11451,.13592499E-3,.1395E-4,0
SNAP-3 EDDIE,2015-058J,2026-06-25T00:54:28.246752,15.63150797,.002574,64.7417,67.4251,10.8094,349.3601,0,U,40972,999,12025,.15598E-2,.148087E-2,0
PROPCUBE 3,2015-058K,2026-06-23T13:36:59.600736,14.94283146,.01243935,64.7675,232.6013,57.3922,303.9127,0,U,40973,999,11575,.16194962E-3,.1847E-4,0
BISONSAT,2015-058L,2026-06-25T05:04:47.400672,15.16374425,.0080014,64.7574,147.6966,43.9982,316.7473,0,U,40974,999,11683,.81399E-3,.17063E-3,0
SNAP-3 JIMI,2015-058M,2026-06-25T04:15:19.783584,15.02363176,.0106625,64.7633,194.4905,52.1353,308.9351,0,U,40975,999,11542,.39979E-3,.5818E-4,0
PROPCUBE 1 (FLORA),2015-058N,2026-06-23T23:28:38.820576,14.89246131,.01311138,64.7740,274.1884,58.2861,303.0953,0,U,40976,999,11727,.15689278E-3,.1571E-4,0
SINOD-D 3,2015-058P,2026-06-23T22:26:02.151168,14.94048063,.01196491,64.7721,254.7482,55.4465,305.7871,0,U,40977,999,11576,.1950537E-3,.2223E-4,0
HORYU-4,2016-012D,2026-06-24T22:09:51.695136,16.04340254,.0008452,30.9835,21.9003,319.1648,40.8382,0,U,41340,999,57205,.12685E-2,.887715E-2,.38476E-3
RAVAN,2016-067B,2026-06-24T04:28:51.299904,15.55287518,.00033091,97.9882,65.5694,7.4434,352.6867,0,U,41849,999,52878,.7091668E-3,.48165E-3,0
CELTEE 1,2016-067C,2026-06-25T02:35:56.136768,15.19752018,.0001397,98.0670,43.2156,129.0761,231.0596,0,U,41850,999,52708,.29013E-3,.6128E-4,0
OPTICUBE 04,2016-067D,2026-06-25T02:22:47.247744,15.09690402,.0017028,98.0695,28.7953,90.9437,269.3742,0,U,41851,999,52636,.127E-3,.198E-4,0
AEROCUBE 8D,2016-067E,2026-06-25T03:55:30.985248,15.24498380,.0004949,98.0679,46.9416,104.2415,255.9371,0,U,41852,999,52728,.34919E-3,.8508E-4,0
AEROCUBE 8C,2016-067F,2026-06-25T02:55:06.755808,15.24747896,.0006155,98.0551,44.1138,47.3359,312.8394,0,U,41853,999,52727,.35919E-3,.8822E-4,0
CORVUS BC2,2017-042X,2026-06-24T21:36:53.129952,15.06342159,.0014782,97.4074,336.9510,86.7538,273.5381,0,U,42846,999,48822,.2121E-3,.3067E-4,0
CORVUS BC1,2017-042Y,2026-06-24T23:03:32.091840,15.06505398,.0013308,97.4100,337.8281,65.7846,294.4771,0,U,42847,999,48826,.18198E-3,.2634E-4,0
MAKERSAT 0,2017-073D,2026-06-23T15:29:28.236480,15.32275781,.01048567,97.4621,57.2152,249.5542,109.4417,0,U,43016,999,46745,.3471552E-3,.12795E-3,0
